STARLINK-1064           
1 44769U 19074BJ  21254.57794001  .00017460  00000-0  40956-3 0  9993
2 44769  53.0571  22.8547 0001400  58.9556 301.1586 15.42173023101154
STARLINK-1065           
1 44770U 19074BK  21254.53500680  .00003220  00000-0  22242-3 0  9996
2 44770  53.0044  24.8362 0000818  92.0733 268.0350 15.08482253101033
STARLINK-1067           
1 44771U 19074BL  21254.58359371  .00000320  00000-0  40364-4 0  9995
2 44771  53.0576  29.3469 0001531  87.1289 272.9875 15.06399783100999
STARLINK-1068           
1 44772U 19074BM  21254.57437954 -.00000024  00000-0  17288-4 0  9990
2 44772  53.0562   9.3867 0001226 116.5675 243.5439 15.06401768101260
STARLINK-1073           
1 44914U 20001A   21254.19289239  .00000213  00000-0  33241-4 0  9995
2 44914  53.0555 151.1047 0002400  65.8432 294.2808 15.06396180 92586
STARLINK-1084           
1 44915U 20001B   21254.75315300 -.00000555  00000-0 -18317-4 0  9995
2 44915  53.0553 148.5916 0002049  69.3306 290.7903 15.06397568 92676
STARLINK-1097           
1 44916U 20001C   21254.03614389  .00023983  00000-0  18779-3 0  9995
2 44916  53.0532 134.0520 0001058  54.2696 305.8419 15.71495235 92817
STARLINK-1098           
1 44917U 20001D   21254.75683632  .00001329  00000-0  10814-3 0  9994
2 44917  53.0553 148.5758 0002075  70.8809 289.2405 15.06392205 92679
STARLINK-1099           
1 44918U 20001E   21254.10442799  .00001566  00000-0  12406-3 0  9993
2 44918  53.0549 151.5031 0002008  72.5926 287.5282 15.06396645 93316
STARLINK-1101           
1 44919U 20001F   21254.14677964  .00011570  00000-0  93114-4 0  9994
2 44919  53.0524 136.7744 0001061  49.0136 311.0973 15.71497505 92785
STARLINK-1102           
1 44920U 20001G   21254.71629702 -.00000862  00000-0 -38996-4 0  9997
2 44920  53.0544 148.7523 0002098  63.8901 296.2304 15.06392170 92661
STARLINK-1103           
1 44921U 20001H   21254.69675547 -.00000079  00000-0  13771-4 0  9996
2 44921  53.0016 148.8393 0001764  72.5364 287.5817 15.05587304 92645
STARLINK-1104           
1 44922U 20001J   21254.10811308  .00001573  00000-0  12448-3 0  9998
2 44922  53.0552 151.4850 0001743  73.4537 286.6643 15.06397452 92571
STARLINK-1106           
1 44923U 20001K   21254.73103194  .00000329  00000-0  40994-4 0  9991
2 44923  53.0552 148.6900 0002072  65.5701 294.5504 15.06395943 92664
STARLINK-1111           
1 44924U 20001L   21254.71998352 -.00000559  00000-0 -18655-4 0  9994
2 44924  53.0552 148.7361 0001776  86.2637 273.8555 15.06392167 92666
STARLINK-1112           
1 44925U 20001M   21254.73472065  .00000230  00000-0  34390-4 0  9993
2 44925  53.0539 148.6677 0002342  74.4557 285.6690 15.06402659 92660
STARLINK-1113           
1 44926U 20001N   21254.72662039 -.00000715  00000-0 -29877-4 0  9999
2 44926  53.0020 148.7107 0002138  78.3756 281.7472 15.05596733 93383
STARLINK-1114           
1 44927U 20001P   21254.74578830 -.00000262  00000-0  13576-5 0  9993
2 44927  53.0536 148.6199 0002254  70.5079 289.6153 15.06384200 92676
STARLINK-1119           
1 44928U 20001Q   21254.21132279 -.00000447  00000-0 -11073-4 0  9994
2 44928  53.0549 151.0215 0002026  64.4365 295.6833 15.06387807 92594
STARLINK-1121           
1 44929U 20001R   21254.19658001 -.00000392  00000-0 -73792-5 0  9994
2 44929  53.0535 151.0831 0001825  78.3888 281.7305 15.06390695 92582
STARLINK-1123           
1 44930U 20001S   21254.22975311  .00000458  00000-0  49648-4 0  9999
2 44930  53.0554 150.9426 0001930  75.8691 284.2512 15.06391409 92597
STARLINK-1128           
1 44931U 20001T   21254.73841541 -.00000649  00000-0 -24662-4 0  9996
2 44931  53.0536 148.6515 0001901  71.5100 288.6095 15.06384861 93406
STARLINK-1130 (DARKSAT) 
1 44932U 20001U   21254.74947314  .00000122  00000-0  27083-4 0  9997
2 44932  53.0554 148.6106 0001925  68.4598 291.6596 15.06390063 93901
STARLINK-1144           
1 44933U 20001V   21254.70892447 -.00000547  00000-0 -17808-4 0  9997
2 44933  53.0539 148.7856 0002008  64.6719 295.4478 15.06395734 93950
STARLINK-1071           
1 44934U 20001W   21254.12468434  .00004524  00000-0  32224-3 0  9994
2 44934  53.0530 131.4080 0002023  77.3765 282.7450 15.06419064 92859
STARLINK-1072           
1 44935U 20001X   21254.76927033  .00691701  00000-0  67474-2 0  9993
2 44935  53.0528 122.2963 0001842  99.5350 260.5872 15.63461889 93048
STARLINK-1078           
1 44936U 20001Y   21254.02824958  .00032784  00000-0  21623-3 0  9992
2 44936  53.0619  84.4538 0002529  88.8230 271.3078 15.75338533 93509
STARLINK-1079           
1 44937U 20001Z   21254.10257897  .00000326  00000-0  40791-4 0  9999
2 44937  53.0556 131.5128 0002102  77.1968 282.9256 15.06401411 92858
STARLINK-1082           
1 44938U 20001AA  21254.13576238 -.00000299  00000-0 -11414-5 0  9998
2 44938  53.0541 131.3562 0001848  84.5320 275.5880 15.06391740 92857
STARLINK-1083           
1 44939U 20001AB  21254.74024682 -.00000806  00000-0 -35161-4 0  9995
2 44939  53.0557 128.6514 0002059  79.4375 280.6846 15.06404285 92947
STARLINK-1091           
1 44940U 20001AC  21254.15418715  .00000143  00000-0  28538-4 0  9998
2 44940  53.0538 131.2739 0001944  77.1844 282.9362 15.06398333 92859
STARLINK-1094           
1 44941U 20001AD  21254.17630704  .00000195  00000-0  32019-4 0  9991
2 44941  53.0541 131.1754 0002193  70.1549 289.9676 15.06395287 92863
STARLINK-1096           
1 44942U 20001AE  21254.69234411 -.00000723  00000-0 -29634-4 0  9992
2 44942  53.0555 128.8654 0001780  85.0145 275.1047 15.06385567 92947
STARLINK-1100           
1 44943U 20001AF  21254.07309100 -.00000478  00000-0 -13172-4 0  9990
2 44943  53.0539 131.6456 0002128  81.7561 278.3669 15.06401041 92844
STARLINK-1108           
1 44944U 20001AG  21254.71812916  .00001074  00000-0  91009-4 0  9992
2 44944  53.0539 128.7435 0002141  75.9570 284.1657 15.06402376 92944
STARLINK-1109           
1 44945U 20001AH  21254.15050575 -.00000458  00000-0 -11848-4 0  9996
2 44945  53.0536 131.2924 0001953  69.0521 291.0677 15.06386367 92854
STARLINK-1110           
1 44946U 20001AJ  21254.07441478  .00004725  00000-0  32329-3 0  9999
2 44946  53.0030 128.5499 0003021  71.2008 288.9308 15.07839894 92870
STARLINK-1116           
1 44947U 20001AK  21254.17261669  .00000143  00000-0  28509-4 0  9999
2 44947  53.0536 131.1904 0002044  77.8378 282.2840 15.06397310 92867
STARLINK-1122           
1 44949U 20001AM  21254.13206689  .00001498  00000-0  11946-3 0  9998
2 44949  53.0551 131.3750 0001951  72.1203 287.9999 15.06397781 92856
STARLINK-1125           
1 44950U 20001AN  21254.14681998 -.00000169  00000-0  75814-5 0  9992
2 44950  53.0554 131.3136 0001982  74.5826 285.5382 15.06386894 92853
STARLINK-1126           
1 44951U 20001AP  21254.13420304  .00006167  00000-0  41806-3 0  9999
2 44951  53.0021 128.7685 0003044  68.1723 291.9590 15.07676833 94162
STARLINK-1117           
1 44952U 20001AQ  21253.98094977 -.00000400  00000-0 -79208-5 0  9990
2 44952  53.0542 132.0514 0002202  74.8405 285.2827 15.06394909 92837
STARLINK-1124           
1 44953U 20001AR  21254.13113196  .00000569  00000-0  57141-4 0  9999
2 44953  53.0546 131.4226 0001916  76.4645 283.6557 15.06396196 94148
STARLINK-1066           
1 44954U 20001AS  21254.74209735 -.00000134  00000-0  99490-5 0  9995
2 44954  53.0553 108.6380 0001962  78.6052 281.5157 15.06398264 93174
STARLINK-1069           
1 44955U 20001AT  21254.74946380 -.00000601  00000-0 -21408-4 0  9993
2 44955  53.0547 108.6067 0002034  72.0459 288.0752 15.06399852 93177
STARLINK-1070           
1 44956U 20001AU  21254.01596705  .00001124  00000-0  94373-4 0  9996
2 44956  53.0542 111.9004 0001472  84.5075 275.6082 15.06391189 93126
STARLINK-1074           
1 44957U 20001AV  21254.10812057 -.00000539  00000-0 -17286-4 0  9997
2 44957  53.0545 111.4852 0002229  70.8773 289.2457 15.06389932 93131
STARLINK-1076           
1 44959U 20001AX  21253.99016397  .00001343  00000-0  10909-3 0  9994
2 44959  53.0552 112.0122 0002070  73.4923 286.6293 15.06394220 93111
STARLINK-1080           
1 44961U 20001AZ  21254.13023293  .00001645  00000-0  12933-3 0  9991
2 44961  53.0545 111.3801 0001631  72.9363 287.1805 15.06396898 93147
STARLINK-1081           
1 44962U 20001BA  21254.72430697  .00087720  13906-4  29475-3 0  9997
2 44962  53.0554  59.9165 0010520 322.1393  37.8892 15.90060456 93909
STARLINK-1085           
1 44963U 20001BB  21254.08566075  .00004419  00000-0  30390-3 0  9996
2 44963  52.9993 108.7142 0001334  73.4845 286.6290 15.07791958 93894
STARLINK-1086           
1 44964U 20001BC  21253.89432591 -.00000342  00000-0 -40438-5 0  9999
2 44964  53.0552 112.4470 0001870  81.0226 279.0975 15.06398416 93108
STARLINK-1088           
1 44966U 20001BE  21254.44722382 -.00000165  00000-0  78472-5 0  9994
2 44966  53.0540 109.9571 0001586  94.3770 265.7400 15.06398106 93184
STARLINK-1089           
1 44967U 20001BF  21254.73472173 -.00000025  00000-0  17207-4 0  9990
2 44967  53.0546 108.6688 0001754  80.4011 279.7176 15.06399304 93239
STARLINK-1090           
1 44968U 20001BG  21254.39930192 -.00000153  00000-0  86369-5 0  9991
2 44968  53.0542 110.1709 0001990  83.0113 277.1102 15.06398882 93187
STARLINK-1092           
1 44969U 20001BH  21254.06019721 -.00000042  00000-0  16127-4 0  9993
2 44969  53.0541 111.6943 0002043  81.7553 278.3668 15.06397514 93121
STARLINK-1093           
1 44970U 20001BJ  21254.10442786 -.00000404  00000-0 -82202-5 0  9992
2 44970  53.0570 111.4967 0001904  81.5330 278.5875 15.06399465 93124
STARLINK-1095           
1 44971U 20001BK  21254.68863343  .00781543  26832-3  21121-2 0  9994
2 44971  53.0190  58.4671 0009209 291.6583  68.3463 15.93675896 93911
STARLINK-1107           
1 44972U 20001BL  21254.73840613  .00001670  00000-0  13098-3 0  9993
2 44972  53.0535 108.6486 0002413  78.4041 281.7219 15.06402408 93233
STARLINK-1115           
1 44973U 20001BM  21254.11916839  .00001606  00000-0  12672-3 0  9996
2 44973  53.0548 111.4291 0001991  77.4906 282.6305 15.06397838 93138
